STARLINK-31851          
1 59844U 24097K   26068.00227620 -.00000482  00000+0 -80125-5 0  9999
2 59844  42.9994 278.0740 0001288 263.3021  96.7684 15.27574121101819
TRANSPORTER-12 OBJECT BA
1 62657U 25009BA  26068.70118713  .00011330  00000+0  42733-3 0  9991
2 62657  97.3985 151.1390 0000403 234.6623 125.4579 15.27214003 63739
